start=new Date('2021-12-01T00:00:00.000Z').valueOf();
sats=[{"MEAN_MOTION_DOT":"0.00000164","ELEMENT_SET_NO":"999","MEAN_MOTION":"15.06399378","RCS_SIZE":"LARGE","OBJECT_TYPE":"PAYLOAD","REF_FRAME":"TEME","CENTER_NAME":"EARTH","DECAY_DATE":null,"COUNTRY_CODE":"US","TIME_SYSTEM":"UTC","FILE":"3228256","ECCENTRICITY":"0.00013770","ARG_OF_PERICENTER":"69.8175","EPHEMERIS_TYPE":"0","NORAD_CAT_ID":"45767","TLE_LINE1":"1 45767U 20038AP  21334.52147899  .00000164  00000-0  29900-4 0  9995","PERIAPSIS":"546.262","MEAN_ELEMENT_THEORY":"SGP4","REV_AT_EPOCH":"8131","SITE":"AFETR","GP_ID":"190815568","BSTAR":"0.00002990000000","INCLINATION":"53.0553","PERIOD":"95.592","MEAN_ANOMALY":"290.2962","EPOCH":"2021-11-30T12:30:55.784736","OBJECT_NAME":"STARLINK-1511","CLASSIFICATION_TYPE":"U","OBJECT_ID":"2020-038AP","LAUNCH_DATE":"2020-06-13","APOAPSIS":"548.169","RA_OF_ASC_NODE":"20.4905","SEMIMAJOR_AXIS":"6925.350","TLE_LINE2":"2 45767  53.0553  20.4905 0001377  69.8175 290.2962 15.06399378 81310","MEAN_MOTION_DDOT":"0.0000000000000"},{"FILE":"3228256","TIME_SYSTEM":"UTC","DECAY_DATE":null,"COUNTRY_CODE":"US","CENTER_NAME":"EARTH","RCS_SIZE":"LARGE","REF_FRAME":"TEME","OBJECT_TYPE":"PAYLOAD","ECCENTRICITY":"0.00012940","ELEMENT_SET_NO":"999","MEAN_MOTION_DOT":"-0.00000197","MEAN_MOTION":"15.06397989","CLASSIFICATION_TYPE":"U","OBJECT_ID":"2020-038AQ","SEMIMAJOR_AXIS":"6925.355","RA_OF_ASC_NODE":"19.0906","APOAPSIS":"548.116","LAUNCH_DATE":"2020-06-13","TLE_LINE2":"2 45768  53.0574  19.0906 0001294  60.7684 299.3434 15.06397989 81378","MEAN_MOTION_DDOT":"0.0000000000000","MEAN_ELEMENT_THEORY":"SGP4","PERIAPSIS":"546.324","REV_AT_EPOCH":"8137","ARG_OF_PERICENTER":"60.7684","EPHEMERIS_TYPE":"0","TLE_LINE1":"1 45768U 20038AQ  21334.83479213 -.00000197  00000-0  56736-5 0  9993","NORAD_CAT_ID":"45768","MEAN_ANOMALY":"299.3434","PERIOD":"95.592","OBJECT_NAME":"STARLINK-1521","EPOCH":"2021-11-30T20:02:06.040032","GP_ID":"190815819","SITE":"AFETR","BSTAR":"0.00000567360000","INCLINATION":"53.0574"},{"ECCENTRICITY":"0.00012650","FILE":"3228256","TIME_SYSTEM":"UTC","DECAY_DATE":null,"COUNTRY_CODE":"US","CENTER_NAME":"EARTH","REF_FRAME":"TEME","RCS_SIZE":"LARGE","OBJECT_TYPE":"PAYLOAD","MEAN_MOTION":"15.06397766","ELEMENT_SET_NO":"999","MEAN_MOTION_DOT":"0.00001485","TLE_LINE2":"2 45769  53.0561  40.1692 0001265  67.8614 292.2509 15.06397766 81054","MEAN_MOTION_DDOT":"0.0000000000000","SEMIMAJOR_AXIS":"6925.355","RA_OF_ASC_NODE":"40.1692","LAUNCH_DATE":"2020-06-13","APOAPSIS":"548.096","OBJECT_ID":"2020-038AR","CLASSIFICATION_TYPE":"U","OBJECT_NAME":"STARLINK-1459","EPOCH":"2021-11-30T14:14:25.560096","MEAN_ANOMALY":"292.2509","PERIOD":"95.592","INCLINATION":"53.0561","SITE":"AFETR","GP_ID":"190814567","BSTAR":"0.00011858000000","REV_AT_EPOCH":"8105","MEAN_ELEMENT_THEORY":"SGP4","PERIAPSIS":"546.344","TLE_LINE1":"1 45769U 20038AR  21334.59335139  .00001485  00000-0  11858-3 0  9999","NORAD_CAT_ID":"45769","ARG_OF_PERICENTER":"67.8614","EPHEMERIS_TYPE":"0"},{"OBJECT_NAME":"STARLINK-1462","EPOCH":"2021-11-30T19:04:59.623392","MEAN_ANOMALY":"298.5007","PERIOD":"95.592","INCLINATION":"53.0537","BSTAR":"0.00003967000000","GP_ID":"190814817","SITE":"AFETR","REV_AT_EPOCH":"8163","MEAN_ELEMENT_THEORY":"SGP4","PERIAPSIS":"546.049","TLE_LINE1":"1 45770U 20038AS  21334.79513453  .00000309  00000-0  39670-4 0  9997","NORAD_CAT_ID":"45770","EPHEMERIS_TYPE":"0","ARG_OF_PERICENTER":"61.6150","MEAN_MOTION_DDOT":"0.0000000000000","TLE_LINE2":"2 45770  53.0537 359.2674 0001667  61.6150 298.5007 15.06403305 81639","RA_OF_ASC_NODE":"359.2674","SEMIMAJOR_AXIS":"6925.338","LAUNCH_DATE":"2020-06-13","APOAPSIS":"548.358","OBJECT_ID":"2020-038AS","CLASSIFICATION_TYPE":"U","MEAN_MOTION":"15.06403305","ELEMENT_SET_NO":"999","MEAN_MOTION_DOT":"0.00000309","ECCENTRICITY":"0.00016670","FILE":"3228256","TIME_SYSTEM":"UTC","DECAY_DATE":null,"CENTER_NAME":"EARTH","COUNTRY_CODE":"US","OBJECT_TYPE":"PAYLOAD","RCS_SIZE":"LARGE","REF_FRAME":"TEME"},{"REV_AT_EPOCH":"8163","PERIAPSIS":"546.067","MEAN_ELEMENT_THEORY":"SGP4","NORAD_CAT_ID":"45771","TLE_LINE1":"1 45771U 20038AT  21334.78871808 -.00000081  00000-0  13493-4 0  9991","EPHEMERIS_TYPE":"0","ARG_OF_PERICENTER":"58.9024","EPOCH":"2021-11-30T18:55:45.242112","OBJECT_NAME":"STARLINK-1463","PERIOD":"95.593","MEAN_ANOMALY":"301.2132","INCLINATION":"53.0558","SITE":"AFETR","GP_ID":"190815069","BSTAR":"0.00001349300000","OBJECT_ID":"2020-038AT","CLASSIFICATION_TYPE":"U","MEAN_MOTION_DDOT":"0.0000000000000","TLE_LINE2":"2 45771  53.0558 359.2934 0001698  58.9024 301.2132 15.06390434 81634","APOAPSIS":"548.419","LAUNCH_DATE":"2020-06-13","RA_OF_ASC_NODE":"359.2934","SEMIMAJOR_AXIS":"6925.378","ELEMENT_SET_NO":"999","MEAN_MOTION_DOT":"-0.00000081","MEAN_MOTION":"15.06390434","TIME_SYSTEM":"UTC","FILE":"3228256","RCS_SIZE":"LARGE","OBJECT_TYPE":"PAYLOAD","REF_FRAME":"TEME","DECAY_DATE":null,"COUNTRY_CODE":"US","CENTER_NAME":"EARTH","ECCENTRICITY":"0.00016980"},{"CLASSIFICATION_TYPE":"U","OBJECT_ID":"2020-038AU","SEMIMAJOR_AXIS":"6925.399","RA_OF_ASC_NODE":"359.3479","LAUNCH_DATE":"2020-06-13","APOAPSIS":"548.531","MEAN_MOTION_DDOT":"0.0000000000000","TLE_LINE2":"2 45772  53.0541 359.3479 0001830  61.5678 298.5495 15.06383574 81643","MEAN_ELEMENT_THEORY":"SGP4","PERIAPSIS":"545.997","REV_AT_EPOCH":"8164","EPHEMERIS_TYPE":"0","ARG_OF_PERICENTER":"61.5678","TLE_LINE1":"1 45772U 20038AU  21334.77766825 -.00001680  00000-0 -93932-4 0  9996","NORAD_CAT_ID":"45772","MEAN_ANOMALY":"298.5495","PERIOD":"95.593","OBJECT_NAME":"STARLINK-1470","EPOCH":"2021-11-30T18:39:50.536800","GP_ID":"190815320","SITE":"AFETR","BSTAR":"-0.00009393200000","INCLINATION":"53.0541","FILE":"3228256","TIME_SYSTEM":"UTC","COUNTRY_CODE":"US","DECAY_DATE":null,"CENTER_NAME":"EARTH","REF_FRAME":"TEME","RCS_SIZE":"LARGE","OBJECT_TYPE":"PAYLOAD","ECCENTRICITY":"0.00018300","ELEMENT_SET_NO":"999","MEAN_MOTION_DOT":"-0.00001680","MEAN_MOTION":"15.06383574"},{"ECCENTRICITY":"0.00015160","COUNTRY_CODE":"US","DECAY_DATE":null,"CENTER_NAME":"EARTH","REF_FRAME":"TEME","RCS_SIZE":"LARGE","OBJECT_TYPE":"PAYLOAD","FILE":"3228256","TIME_SYSTEM":"UTC","MEAN_MOTION":"15.06385589","MEAN_MOTION_DOT":"0.00000511","ELEMENT_SET_NO":"999","SEMIMAJOR_AXIS":"6925.393","RA_OF_ASC_NODE":"359.3718","LAUNCH_DATE":"2020-06-13","APOAPSIS":"548.308","TLE_LINE2":"2 45773  53.0557 359.3718 0001516  68.4810 291.6341 15.06385589 81644","MEAN_MOTION_DDOT":"0.0000000000000","CLASSIFICATION_TYPE":"U","OBJECT_ID":"2020-038AV","GP_ID":"190814068","SITE":"AFETR","BSTAR":"0.00005322500000","INCLINATION":"53.0557","MEAN_ANOMALY":"291.6341","PERIOD":"95.593","OBJECT_NAME":"STARLINK-1482","EPOCH":"2021-11-30T18:29:12.990336","ARG_OF_PERICENTER":"68.4810","EPHEMERIS_TYPE":"0","TLE_LINE1":"1 45773U 20038AV  21334.77028924  .00000511  00000-0  53225-4 0  9999","NORAD_CAT_ID":"45773","MEAN_ELEMENT_THEORY":"SGP4","PERIAPSIS":"546.208","REV_AT_EPOCH":"8164"},{"MEAN_ANOMALY":"290.5941","PERIOD":"95.592","OBJECT_NAME":"STARLINK-1485","EPOCH":"2021-11-30T19:22:16.430304","SITE":"AFETR","GP_ID":"190814318","BSTAR":"0.00005700600000","INCLINATION":"53.0543","MEAN_ELEMENT_THEORY":"SGP4","PERIAPSIS":"546.204","REV_AT_EPOCH":"8164","ARG_OF_PERICENTER":"69.5205","EPHEMERIS_TYPE":"0","TLE_LINE1":"1 45774U 20038AW  21334.80713461  .00000568  00000-0  57006-4 0  9994","NORAD_CAT_ID":"45774","RA_OF_ASC_NODE":"359.2018","SEMIMAJOR_AXIS":"6925.351","LAUNCH_DATE":"2020-06-13","APOAPSIS":"548.229","MEAN_MOTION_DDOT":"0.0000000000000","TLE_LINE2":"2 45774  53.0543 359.2018 0001462  69.5205 290.5941 15.06399148 81642","CLASSIFICATION_TYPE":"U","OBJECT_ID":"2020-038AW","MEAN_MOTION":"15.06399148","ELEMENT_SET_NO":"999","MEAN_MOTION_DOT":"0.00000568","ECCENTRICITY":"0.00014620","FILE":"3228256","TIME_SYSTEM":"UTC","CENTER_NAME":"EARTH","DECAY_DATE":null,"COUNTRY_CODE":"US","OBJECT_TYPE":"PAYLOAD","RCS_SIZE":"LARGE","REF_FRAME":"TEME"},{"ECCENTRICITY":"0.00016560","FILE":"3228256","TIME_SYSTEM":"UTC","DECAY_DATE":null,"COUNTRY_CODE":"US","CENTER_NAME":"EARTH","RCS_SIZE":"LARGE","REF_FRAME":"TEME","OBJECT_TYPE":"PAYLOAD","MEAN_MOTION":"15.06398241","ELEMENT_SET_NO":"999","MEAN_MOTION_DOT":"0.00001034","SEMIMAJOR_AXIS":"6925.354","RA_OF_ASC_NODE":"359.1914","APOAPSIS":"548.366","LAUNCH_DATE":"2020-06-13","MEAN_MOTION_DDOT":"0.0000000000000","TLE_LINE2":"2 45775  53.0549 359.1914 0001656  63.2039 296.9119 15.06398241 81655","CLASSIFICATION_TYPE":"U","OBJECT_ID":"2020-038AX","MEAN_ANOMALY":"296.9119","PERIOD":"95.592","OBJECT_NAME":"STARLINK-1488","EPOCH":"2021-11-30T19:27:35.471808","SITE":"AFETR","GP_ID":"190815569","BSTAR":"0.00008829500000","INCLINATION":"53.0549","MEAN_ELEMENT_THEORY":"SGP4","PERIAPSIS":"546.072","REV_AT_EPOCH":"8165","ARG_OF_PERICENTER":"63.2039","EPHEMERIS_TYPE":"0","TLE_LINE1":"1 45775U 20038AX  21334.81082722  .00001034  00000-0  88295-4 0  9998","NORAD_CAT_ID":"45775"},{"ECCENTRICITY":"0.00015590","DECAY_DATE":null,"COUNTRY_CODE":"US","CENTER_NAME":"EARTH","REF_FRAME":"TEME","RCS_SIZE":"LARGE","OBJECT_TYPE":"PAYLOAD","FILE":"3228256","TIME_SYSTEM":"UTC","MEAN_MOTION":"15.06405169","MEAN_MOTION_DOT":"-0.00001173","ELEMENT_SET_NO":"999","MEAN_MOTION_DDOT":"0.0000000000000","TLE_LINE2":"2 45776  53.0541   0.6460 0001559  64.2047 295.9102 15.06405169 81608","RA_OF_ASC_NODE":"0.6460","SEMIMAJOR_AXIS":"6925.333","APOAPSIS":"548.277","LAUNCH_DATE":"2020-06-13","OBJECT_ID":"2020-038AY","CLASSIFICATION_TYPE":"U","INCLINATION":"53.0541","SITE":"AFETR","GP_ID":"190815820","BSTAR":"-0.00005983200000","OBJECT_NAME":"STARLINK-1489","EPOCH":"2021-11-30T11:40:30.298656","MEAN_ANOMALY":"295.9102","PERIOD":"95.592","TLE_LINE1":"1 45776U 20038AY  21334.48646179 -.00001173  00000-0 -59832-4 0  9995","NORAD_CAT_ID":"45776","ARG_OF_PERICENTER":"64.2047","EPHEMERIS_TYPE":"0","REV_AT_EPOCH":"8160","MEAN_ELEMENT_THEORY":"SGP4","PERIAPSIS":"546.118"}];
